{"type": "FeatureCollection", "features": [ {"type": "Feature", "properties": {"norad_id": 66583, "name": "STARLINK-35941", "group": "last-30-days", "lat": -42.90314184968874, "lon": 88.92212855643122, "alt_km": 348.22262377778134, "timestamp": "2025-12-03T15:48:01.920375+00:00", "meta": {"OBJECT_NAME": "STARLINK-35941", "OBJECT_ID": "2025-268AC", "EPOCH": "2025-12-03T06:00:02.999808", "MEAN_MOTION": 15.7540652, "ECCENTRICITY": 0.00014981, "INCLINATION": 42.999, "RA_OF_ASC_NODE": 177.2504, "ARG_OF_PERICENTER": 274.1931, "MEAN_ANOMALY": 200.9029, "EPHEMERIS_TYPE": 0, "CLASSIFICATION_TYPE": "U", "NORAD_CAT_ID": 66583, "ELEMENT_SET_NO": 999, "REV_AT_EPOCH": 314, "BSTAR": -0.0071782806, "MEAN_MOTION_DOT": -0.01013128, "MEAN_MOTION_DDOT": 0}, "tle": {"line1": "1 66583U 25268AC  25337.25003472 -.01013128  00000+0 -71783-2 0  9999", "line2": "2 66583  42.9990 177.2504 0001498 274.1931 200.9029 15.75406520  3143"}}, "geometry": {"type": "Point", "coordinates": [88.92212855643122, -42.90314184968874]}}, {"type": "Feature", "properties": {"norad_id": 66584, "name": "STARLINK-35939", "group": "last-30-days", "lat": -42.77884762861205, "lon": 91.5279949481235, "alt_km": 348.3201426824544, "timestamp": "2025-12-03T15:48:01.920385+00:00", "meta": {"OBJECT_NAME": "STARLINK-35939", "OBJECT_ID": "2025-268AD", "EPOCH": "2025-12-03T06:00:02.999808", "MEAN_MOTION": 15.75383019, "ECCENTRICITY": 0.00013467, "INCLINATION": 42.999, "RA_OF_ASC_NODE": 177.2459, "ARG_OF_PERICENTER": 264.9653, "MEAN_ANOMALY": 212.0609, "EPHEMERIS_TYPE": 0, "CLASSIFICATION_TYPE": "U", "NORAD_CAT_ID": 66584, "ELEMENT_SET_NO": 999, "REV_AT_EPOCH": 314, "BSTAR": -0.0069480735, "MEAN_MOTION_DOT": -0.00982641, "MEAN_MOTION_DDOT": 0}, "tle": {"line1": "1 66584U 25268AD  25337.25003472 -.00982641  00000+0 -69481-2 0  9996", "line2": "2 66584  42.9990 177.2459 0001346 264.9653 212.0609 15.75383019  3148"}}, "geometry": {"type": "Point", "coordinates": [91.5279949481235, -42.77884762861205]}}, {"type": "Feature", "properties": {"norad_id": 66585, "name": "STARLINK-35963", "group": "last-30-days", "lat": -42.59611094374683, "lon": 94.11316421895884, "alt_km": 347.84769409527416, "timestamp": "2025-12-03T15:48:01.920396+00:00", "meta": {"OBJECT_NAME": "STARLINK-35963", "OBJECT_ID": "2025-268AE", "EPOCH": "2025-12-03T06:00:02.999808", "MEAN_MOTION": 15.75406398, "ECCENTRICITY": 0.00020419, "INCLINATION": 42.9989, "RA_OF_ASC_NODE": 177.2418, "ARG_OF_PERICENTER": 268.1508, "MEAN_ANOMALY": 210.7779, "EPHEMERIS_TYPE": 0, "CLASSIFICATION_TYPE": "U", "NORAD_CAT_ID": 66585, "ELEMENT_SET_NO": 999, "REV_AT_EPOCH": 314, "BSTAR": -0.0071833678, "MEAN_MOTION_DOT": -0.01013986, "MEAN_MOTION_DDOT": 0}, "tle": {"line1": "1 66585U 25268AE  25337.25003472 -.01013986  00000+0 -71834-2 0  9990", "line2": "2 66585  42.9989 177.2418 0002041 268.1508 210.7779 15.75406398  3149"}}, "geometry": {"type": "Point", "coordinates": [94.11316421895884, -42.59611094374683]}}, {"type": "Feature", "properties": {"norad_id": 66586, "name": "TJS-21", "group": "last-30-days", "lat": 34.58247974242963, "lon": -153.99938923501057, "alt_km": 40091.026840929386, "timestamp": "2025-12-03T15:48:01.920408+00:00", "meta": {"OBJECT_NAME": "TJS-21", "OBJECT_ID": "2025-269A", "EPOCH": "2025-11-22T00:38:56.616288", "MEAN_MOTION": 2.0099221, "ECCENTRICITY": 0.75179873, "INCLINATION": 51.0366, "RA_OF_ASC_NODE": 174.7096, "ARG_OF_PERICENTER": 225.0489, "MEAN_ANOMALY": 41.6572, "EPHEMERIS_TYPE": 0, "CLASSIFICATION_TYPE": "U", "NORAD_CAT_ID": 66586, "ELEMENT_SET_NO": 999, "REV_AT_EPOCH": 2, "BSTAR": 0.00053569978, "MEAN_MOTION_DOT": 3.197e-05, "MEAN_MOTION_DDOT": 0}, "tle": {"line1": "1 66586U 25269A   25326.02704417  .00003197  00000+0  53570-3 0  9990", "line2": "2 66586  51.0366 174.7096 7517987 225.0489  41.6572  2.00992210    24"}}, "geometry": {"type": "Point", "coordinates": [-153.99938923501057, 34.58247974242963]}}, {"type": "Feature", "properties": {"norad_id": 66587, "name": "CZ-3B R/B", "group": "last-30-days", "lat": 38.12057299836907, "lon": -149.36011073420673, "alt_km": 39434.27847825433, "timestamp": "2025-12-03T15:48:01.920423+00:00", "meta": {"OBJECT_NAME": "CZ-3B R/B", "OBJECT_ID": "2025-269B", "EPOCH": "2025-11-23T12:20:01.405824", "MEAN_MOTION": 2.01516013, "ECCENTRICITY": 0.75253415, "INCLINATION": 51.3768, "RA_OF_ASC_NODE": 174.0599, "ARG_OF_PERICENTER": 225.2938, "MEAN_ANOMALY": 41.2116, "EPHEMERIS_TYPE": 0, "CLASSIFICATION_TYPE": "U", "NORAD_CAT_ID": 66587, "ELEMENT_SET_NO": 999, "REV_AT_EPOCH": 6, "BSTAR": 0.00049596604, "MEAN_MOTION_DOT": 0.0001032, "MEAN_MOTION_DDOT": -9.13844e-07}, "tle": {"line1": "1 66587U 25269B   25327.51390516  .00010320 -91384-6  49597-3 0  9990", "line2": "2 66587  51.3768 174.0599 7525341 225.2938  41.2116  2.01516013    67"}}, "geometry": {"type": "Point", "coordinates": [-149.36011073420673, 38.12057299836907]}}, {"type": "Feature", "properties": {"norad_id": 66588, "name": "STARLINK-36076", "group": "last-30-days", "lat": 12.296883055043144, "lon": -99.70185773232949, "alt_km": 338.4834107286679, "timestamp": "2025-12-03T15:48:01.920436+00:00", "meta": {"OBJECT_NAME": "STARLINK-36076", "OBJECT_ID": "2025-270A", "EPOCH": "2025-12-03T06:00:02.999808", "MEAN_MOTION": 15.77968675, "ECCENTRICITY": 0.00015689, "INCLINATION": 42.9988, "RA_OF_ASC_NODE": 249.2554, "ARG_OF_PERICENTER": 267.69, "MEAN_ANOMALY": 309.209, "EPHEMERIS_TYPE": 0, "CLASSIFICATION_TYPE": "U", "NORAD_CAT_ID": 66588, "ELEMENT_SET_NO": 999, "REV_AT_EPOCH": 287, "BSTAR": -0.0099546712, "MEAN_MOTION_DOT": -0.01529085, "MEAN_MOTION_DDOT": 0}, "tle": {"line1": "1 66588U 25270A   25337.25003472 -.01529085  00000+0 -99547-2 0  9999", "line2": "2 66588  42.9988 249.2554 0001568 267.6900 309.2090 15.77968675  2877"}}, "geometry": {"type": "Point", "coordinates": [-99.70185773232949, 12.296883055043144]}}, {"type": "Feature", "properties": {"norad_id": 66589, "name": "STARLINK-35447", "group": "last-30-days", "lat": 14.810311956854973, "lon": -96.75599423267069, "alt_km": 338.2124131049668, "timestamp": "2025-12-03T15:48:01.920445+00:00", "meta": {"OBJECT_NAME": "STARLINK-35447", "OBJECT_ID": "2025-270B", "EPOCH": "2025-12-03T06:00:02.999808", "MEAN_MOTION": 15.77993397, "ECCENTRICITY": 0.00014627, "INCLINATION": 42.9988, "RA_OF_ASC_NODE": 249.2455, "ARG_OF_PERICENTER": 263.3188, "MEAN_ANOMALY": 317.3718, "EPHEMERIS_TYPE": 0, "CLASSIFICATION_TYPE": "U", "NORAD_CAT_ID": 66589, "ELEMENT_SET_NO": 999, "REV_AT_EPOCH": 298, "BSTAR": -0.010049651, "MEAN_MOTION_DOT": -0.01543288, "MEAN_MOTION_DDOT": 0}, "tle": {"line1": "1 66589U 25270B   25337.25003472 -.01543288  00000+0 -10050-1 0  9992", "line2": "2 66589  42.9988 249.2455 0001462 263.3188 317.3718 15.77993397  2980"}}, "geometry": {"type": "Point", "coordinates": [-96.75599423267069, 14.810311956854973]}}, {"type": "Feature", "properties": {"norad_id": 66590, "name": "STARLINK-35429", "group": "last-30-days", "lat": 13.53497827883845, "lon": -98.26362297209491, "alt_km": 338.28477911762457, "timestamp": "2025-12-03T15:48:01.920454+00:00", "meta": {"OBJECT_NAME": "STARLINK-35429", "OBJECT_ID": "2025-270C", "EPOCH": "2025-12-03T06:00:02.999808", "MEAN_MOTION": 15.78006359, "ECCENTRICITY": 0.00015685, "INCLINATION": 42.9989, "RA_OF_ASC_NODE": 249.2507, "ARG_OF_PERICENTER": 266.373, "MEAN_ANOMALY": 312.3509, "EPHEMERIS_TYPE": 0, "CLASSIFICATION_TYPE": "U", "NORAD_CAT_ID": 66590, "ELEMENT_SET_NO": 999, "REV_AT_EPOCH": 298, "BSTAR": -0.010011243, "MEAN_MOTION_DOT": -0.01538998, "MEAN_MOTION_DDOT": 0}, "tle": {"line1": "1 66590U 25270C   25337.25003472 -.01538998  00000+0 -10011-1 0  9993", "line2": "2 66590  42.9989 249.2507 0001568 266.3730 312.3509 15.78006359  2981"}}, "geometry": {"type": "Point", "coordinates": [-98.26362297209491, 13.53497827883845]}}, {"type": "Feature", "properties": {"norad_id": 66591, "name": "STARLINK-36058", "group": "last-30-days", "lat": 16.125467505350514, "lon": -95.16948648235478, "alt_km": 337.9133100544377, "timestamp": "2025-12-03T15:48:01.920464+00:00", "meta": {"OBJECT_NAME": "STARLINK-36058", "OBJECT_ID": "2025-270D", "EPOCH": "2025-12-03T06:00:02.999808", "MEAN_MOTION": 15.7794262, "ECCENTRICITY": 0.00013067, "INCLINATION": 42.9989, "RA_OF_ASC_NODE": 249.2404, "ARG_OF_PERICENTER": 275.3051, "MEAN_ANOMALY": 307.4857, "EPHEMERIS_TYPE": 0, "CLASSIFICATION_TYPE": "U", "NORAD_CAT_ID": 66591, "ELEMENT_SET_NO": 999, "REV_AT_EPOCH": 287, "BSTAR": -0.010131787, "MEAN_MOTION_DOT": -0.01551059, "MEAN_MOTION_DDOT": 0}, "tle": {"line1": "1 66591U 25270D   25337.25003472 -.01551059  00000+0 -10132-1 0  9991", "line2": "2 66591  42.9989 249.2404 0001306 275.3051 307.4857 15.77942620  2872"}}, "geometry": {"type": "Point", "coordinates": [-95.16948648235478, 16.125467505350514]}}, {"type": "Feature", "properties": {"norad_id": 66592, "name": "STARLINK-36066", "group": "last-30-days", "lat": 17.384281440268744, "lon": -93.61733547459382, "alt_km": 338.0617519320631, "timestamp": "2025-12-03T15:48:01.920474+00:00", "meta": {"OBJECT_NAME": "STARLINK-36066", "OBJECT_ID": "2025-270E", "EPOCH": "2025-12-03T06:00:02.999808", "MEAN_MOTION": 15.77928065, "ECCENTRICITY": 0.00016412, "INCLINATION": 42.999, "RA_OF_ASC_NODE": 249.2355, "ARG_OF_PERICENTER": 267.25, "MEAN_ANOMALY": 317.5088, "EPHEMERIS_TYPE": 0, "CLASSIFICATION_TYPE": "U", "NORAD_CAT_ID": 66592, "ELEMENT_SET_NO": 999, "REV_AT_EPOCH": 277, "BSTAR": -0.010129161, "MEAN_MOTION_DOT": -0.01550059, "MEAN_MOTION_DDOT": 0}, "tle": {"line1": "1 66592U 25270E   25337.25003472 -.01550059  00000+0 -10129-1 0  9997", "line2": "2 66592  42.9990 249.2355 0001641 267.2500 317.5088 15.77928065  2775"}}, "geometry": {"type": "Point", "coordinates": [-93.61733547459382, 17.384281440268744]}}]}